{
    "links": {
        "self": "http://www.neowsapp.com/rest/v1/neo/3740671?api_key=iIulBulltgU6a56xZRHN4H3l9WmuAYTsLGpBGhQ2"
    },
    "id": "3740671",
    "neo_reference_id": "3740671",
    "name": "(2016 BY)",
    "designation": "2016 BY",
    "nasa_jpl_url": "http://ssd.jpl.nasa.gov/sbdb.cgi?sstr=3740671",
    "absolute_magnitude_h": 26.2,
    "estimated_diameter": {
        "kilometers": {
            "estimated_diameter_min": 0.0152951935,
            "estimated_diameter_max": 0.0342010925
        },
        "meters": {
            "estimated_diameter_min": 15.2951935344,
            "estimated_diameter_max": 34.201092472
        },
        "miles": {
            "estimated_diameter_min": 0.0095039897,
            "estimated_diameter_max": 0.021251567
        },
        "feet": {
            "estimated_diameter_min": 50.1810827555,
            "estimated_diameter_max": 112.2083122258
        }
    },
    "is_potentially_hazardous_asteroid": false,
    "close_approach_data": [
        {
            "close_approach_date": "1904-04-08",
            "close_approach_date_full": "1904-Apr-08 15:16",
            "epoch_date_close_approach": -2074322640000,
            "relative_velocity": {
                "kilometers_per_second": "4.8760833698",
                "kilometers_per_hour": "17553.9001313438",
                "miles_per_hour": "10907.3108899453"
            },
            "miss_distance": {
                "astronomical": "1.4099293528",
                "lunar": "548.4625182392",
                "kilometers": "210922428.029358536",
                "miles": "131061119.3925823568"
            },
            "orbiting_body": "Juptr"
        },
        {
            "close_approach_date": "1975-07-14",
            "close_approach_date_full": "1975-Jul-14 15:57",
            "epoch_date_close_approach": 174585420000,
            "relative_velocity": {
                "kilometers_per_second": "5.062262996",
                "kilometers_per_hour": "18224.1467855781",
                "miles_per_hour": "11323.7760957388"
            },
            "miss_distance": {
                "astronomical": "1.4718293821",
                "lunar": "572.5416296369",
                "kilometers": "220182540.565576127",
                "miles": "136815086.5075874726"
            },
            "orbiting_body": "Juptr"
        },
        {
            "close_approach_date": "2016-01-21",
            "close_approach_date_full": "2016-Jan-21 10:28",
            "epoch_date_close_approach": 1453372080000,
            "relative_velocity": {
                "kilometers_per_second": "17.7110980071",
                "kilometers_per_hour": "63759.952825483",
                "miles_per_hour": "39617.9551320341"
            },
            "miss_distance": {
                "astronomical": "0.009430984",
                "lunar": "3.668652776",
                "kilometers": "1410855.11840408",
                "miles": "876664.719093104"
            },
            "orbiting_body": "Moon"
        },
        {
            "close_approach_date": "2016-01-21",
            "close_approach_date_full": "2016-Jan-21 14:49",
            "epoch_date_close_approach": 1453387740000,
            "relative_velocity": {
                "kilometers_per_second": "17.279145374",
                "kilometers_per_hour": "62204.9233464263",
                "miles_per_hour": "38651.7202871169"
            },
            "miss_distance": {
                "astronomical": "0.0085297331",
                "lunar": "3.3180661759",
                "kilometers": "1276029.903428497",
                "miles": "792888.2152753786"
            },
            "orbiting_body": "Earth"
        },
        {
            "close_approach_date": "2019-07-07",
            "close_approach_date_full": "2019-Jul-07 17:22",
            "epoch_date_close_approach": 1562520120000,
            "relative_velocity": {
                "kilometers_per_second": "31.1106861641",
                "kilometers_per_hour": "111998.4701906963",
                "miles_per_hour": "69591.4938804357"
            },
            "miss_distance": {
                "astronomical": "0.4985797958",
                "lunar": "193.9475405662",
                "kilometers": "74586475.476714946",
                "miles": "46345886.7739044148"
            },
            "orbiting_body": "Earth"
        }
    ],
    "orbital_data": {
        "orbit_id": "7",
        "orbit_determination_date": "2019-07-10 05:35:25",
        "first_observation_date": "2016-01-19",
        "last_observation_date": "2016-01-21",
        "data_arc_in_days": 2,
        "observations_used": 37,
        "orbit_uncertainty": "8",
        "minimum_orbit_intersection": ".00183272",
        "jupiter_tisserand_invariant": "3.342",
        "epoch_osculation": "2457407.5",
        "eccentricity": ".6563218967559581",
        "semi_major_axis": "2.194849980566745",
        "inclination": "7.577137777106036",
        "ascending_node_longitude": "120.6575724265781",
        "orbital_period": "1187.697080129491",
        "perihelion_distance": ".7543218782264011",
        "perihelion_argument": "66.57626367382433",
        "aphelion_distance": "3.635378082907089",
        "perihelion_time": "2457450.340655563313",
        "mean_anomaly": "347.0146721240476",
        "mean_motion": ".3031075903299774",
        "equinox": "J2000",
        "orbit_class": {
            "orbit_class_type": "APO",
            "orbit_class_description": "Near-Earth asteroid orbits which cross the Earth’s orbit similar to that of 1862 Apollo",
            "orbit_class_range": "a (semi-major axis) > 1.0 AU; q (perihelion) < 1.017 AU"
        }
    },
    "is_sentry_object": false
}